[
  {
    "COMMENT": "GENERATED VIA SPACETRACK.ORG API",
    "ORIGINATOR": "18 SPCS",
    "NORAD_CAT_ID": "46984",
    "OBJECT_NAME": "S6 MICHAEL FREILICH",
    "OBJECT_TYPE": "PAYLOAD",
    "CLASSIFICATION_TYPE": "U",
    "INTLDES": "20086A",
    "EPOCH": "2021-10-19 17:35:16",
    "EPOCH_MICROSECONDS": "797984",
    "MEAN_MOTION": "12.80930657",
    "ECCENTRICITY": "0.0007703",
    "INCLINATION": "66.0407",
    "RA_OF_ASC_NODE": "69.0086",
    "ARG_OF_PERICENTER": "262.5776",
    "MEAN_ANOMALY": "97.4362",
    "EPHEMERIS_TYPE": "0",
    "ELEMENT_SET_NO": "999",
    "REV_AT_EPOCH": "4253",
    "BSTAR": "0",
    "MEAN_MOTION_DOT": "-0.00000061",
    "MEAN_MOTION_DDOT": "0",
    "FILE": "3172644",
    "TLE_LINE0": "0 S6 MICHAEL FREILICH",
    "TLE_LINE1": "1 46984U 20086A   21292.73283331 -.00000061  00000-0  00000-0 0  9991",
    "TLE_LINE2": "2 46984  66.0407  69.0086 0007703 262.5776  97.4362 12.80930657 42533",
    "OBJECT_ID": "2020-086A",
    "OBJECT_NUMBER": "46984",
    "SEMIMAJOR_AXIS": "7715.868",
    "PERIOD": "112.418",
    "APOGEE": "1343.676",
    "PERIGEE": "1331.789",
    "DECAYED": "0"
  },
  {
    "COMMENT": "GENERATED VIA SPACETRACK.ORG API",
    "ORIGINATOR": "18 SPCS",
    "NORAD_CAT_ID": "46984",
    "OBJECT_NAME": "S6 MICHAEL FREILICH",
    "OBJECT_TYPE": "PAYLOAD",
    "CLASSIFICATION_TYPE": "U",
    "INTLDES": "20086A",
    "EPOCH": "2021-10-20 10:27:08",
    "EPOCH_MICROSECONDS": "614368",
    "MEAN_MOTION": "12.8093067",
    "ECCENTRICITY": "0.0007706",
    "INCLINATION": "66.0407",
    "RA_OF_ASC_NODE": "67.5491",
    "ARG_OF_PERICENTER": "262.2183",
    "MEAN_ANOMALY": "97.7961",
    "EPHEMERIS_TYPE": "0",
    "ELEMENT_SET_NO": "999",
    "REV_AT_EPOCH": "4262",
    "BSTAR": "0",
    "MEAN_MOTION_DOT": "-0.00000061",
    "MEAN_MOTION_DDOT": "0",
    "FILE": "3173505",
    "TLE_LINE0": "0 S6 MICHAEL FREILICH",
    "TLE_LINE1": "1 46984U 20086A   21293.43551637 -.00000061  00000-0  00000+0 0  9995",
    "TLE_LINE2": "2 46984  66.0407  67.5491 0007706 262.2183  97.7961 12.80930670 42621",
    "OBJECT_ID": "2020-086A",
    "OBJECT_NUMBER": "46984",
    "SEMIMAJOR_AXIS": "7715.867",
    "PERIOD": "112.418",
    "APOGEE": "1343.678",
    "PERIGEE": "1331.787",
    "DECAYED": "0"
  },
  {
    "COMMENT": "GENERATED VIA SPACETRACK.ORG API",
    "ORIGINATOR": "18 SPCS",
    "NORAD_CAT_ID": "46984",
    "OBJECT_NAME": "S6 MICHAEL FREILICH",
    "OBJECT_TYPE": "PAYLOAD",
    "CLASSIFICATION_TYPE": "U",
    "INTLDES": "20086A",
    "EPOCH": "2021-10-20 10:27:08",
    "EPOCH_MICROSECONDS": "614368",
    "MEAN_MOTION": "12.8093067",
    "ECCENTRICITY": "0.0007706",
    "INCLINATION": "66.0407",
    "RA_OF_ASC_NODE": "67.5491",
    "ARG_OF_PERICENTER": "262.2183",
    "MEAN_ANOMALY": "97.7961",
    "EPHEMERIS_TYPE": "0",
    "ELEMENT_SET_NO": "999",
    "REV_AT_EPOCH": "4262",
    "BSTAR": "0",
    "MEAN_MOTION_DOT": "-0.00000061",
    "MEAN_MOTION_DDOT": "0",
    "FILE": "3173506",
    "TLE_LINE0": "0 S6 MICHAEL FREILICH",
    "TLE_LINE1": "1 46984U 20086A   21293.43551637 -.00000061  00000-0  00000+0 0  9995",
    "TLE_LINE2": "2 46984  66.0407  67.5491 0007706 262.2183  97.7961 12.80930670 42621",
    "OBJECT_ID": "2020-086A",
    "OBJECT_NUMBER": "46984",
    "SEMIMAJOR_AXIS": "7715.867",
    "PERIOD": "112.418",
    "APOGEE": "1343.678",
    "PERIGEE": "1331.787",
    "DECAYED": "0"
  },
  {
    "COMMENT": "GENERATED VIA SPACETRACK.ORG API",
    "ORIGINATOR": "18 SPCS",
    "NORAD_CAT_ID": "46984",
    "OBJECT_NAME": "S6 MICHAEL FREILICH",
    "OBJECT_TYPE": "PAYLOAD",
    "CLASSIFICATION_TYPE": "U",
    "INTLDES": "20086A",
    "EPOCH": "2021-10-20 16:04:25",
    "EPOCH_MICROSECONDS": "881600",
    "MEAN_MOTION": "12.80930624",
    "ECCENTRICITY": "0.0007688",
    "INCLINATION": "66.0412",
    "RA_OF_ASC_NODE": "67.0627",
    "ARG_OF_PERICENTER": "262.6017",
    "MEAN_ANOMALY": "97.4106",
    "EPHEMERIS_TYPE": "0",
    "ELEMENT_SET_NO": "999",
    "REV_AT_EPOCH": "4265",
    "BSTAR": "0",
    "MEAN_MOTION_DOT": "-0.00000061",
    "MEAN_MOTION_DDOT": "0",
    "FILE": "3175135",
    "TLE_LINE0": "0 S6 MICHAEL FREILICH",
    "TLE_LINE1": "1 46984U 20086A   21293.66974400 -.00000061  00000-0  00000-0 0  9998",
    "TLE_LINE2": "2 46984  66.0412  67.0627 0007688 262.6017  97.4106 12.80930624 42652",
    "OBJECT_ID": "2020-086A",
    "OBJECT_NUMBER": "46984",
    "SEMIMAJOR_AXIS": "7715.868",
    "PERIOD": "112.418",
    "APOGEE": "1343.665",
    "PERIGEE": "1331.801",
    "DECAYED": "0"
  },
  {
    "COMMENT": "GENERATED VIA SPACETRACK.ORG API",
    "ORIGINATOR": "18 SPCS",
    "NORAD_CAT_ID": "46984",
    "OBJECT_NAME": "S6 MICHAEL FREILICH",
    "OBJECT_TYPE": "PAYLOAD",
    "CLASSIFICATION_TYPE": "U",
    "INTLDES": "20086A",
    "EPOCH": "2021-10-21 14:33:35",
    "EPOCH_MICROSECONDS": "4096",
    "MEAN_MOTION": "12.80930636",
    "ECCENTRICITY": "0.0007692",
    "INCLINATION": "66.0416",
    "RA_OF_ASC_NODE": "65.1168",
    "ARG_OF_PERICENTER": "262.2766",
    "MEAN_ANOMALY": "97.7373",
    "EPHEMERIS_TYPE": "0",
    "ELEMENT_SET_NO": "999",
    "REV_AT_EPOCH": "4277",
    "BSTAR": "0",
    "MEAN_MOTION_DOT": "-0.00000061",
    "MEAN_MOTION_DDOT": "0",
    "FILE": "3176553",
    "TLE_LINE0": "0 S6 MICHAEL FREILICH",
    "TLE_LINE1": "1 46984U 20086A   21294.60665514 -.00000061  00000-0  00000-0 0  9996",
    "TLE_LINE2": "2 46984  66.0416  65.1168 0007692 262.2766  97.7373 12.80930636 42772",
    "OBJECT_ID": "2020-086A",
    "OBJECT_NUMBER": "46984",
    "SEMIMAJOR_AXIS": "7715.868",
    "PERIOD": "112.418",
    "APOGEE": "1343.668",
    "PERIGEE": "1331.798",
    "DECAYED": "0"
  },
  {
    "COMMENT": "GENERATED VIA SPACETRACK.ORG API",
    "ORIGINATOR": "18 SPCS",
    "NORAD_CAT_ID": "46984",
    "OBJECT_NAME": "S6 MICHAEL FREILICH",
    "OBJECT_TYPE": "PAYLOAD",
    "CLASSIFICATION_TYPE": "U",
    "INTLDES": "20086A",
    "EPOCH": "2021-10-21 14:33:35",
    "EPOCH_MICROSECONDS": "4096",
    "MEAN_MOTION": "12.80930636",
    "ECCENTRICITY": "0.0007692",
    "INCLINATION": "66.0416",
    "RA_OF_ASC_NODE": "65.1168",
    "ARG_OF_PERICENTER": "262.2766",
    "MEAN_ANOMALY": "97.7373",
    "EPHEMERIS_TYPE": "0",
    "ELEMENT_SET_NO": "999",
    "REV_AT_EPOCH": "4277",
    "BSTAR": "0",
    "MEAN_MOTION_DOT": "-0.00000061",
    "MEAN_MOTION_DDOT": "0",
    "FILE": "3176554",
    "TLE_LINE0": "0 S6 MICHAEL FREILICH",
    "TLE_LINE1": "1 46984U 20086A   21294.60665514 -.00000061  00000-0  00000+0 0  9995",
    "TLE_LINE2": "2 46984  66.0416  65.1168 0007692 262.2766  97.7373 12.80930636 42772",
    "OBJECT_ID": "2020-086A",
    "OBJECT_NUMBER": "46984",
    "SEMIMAJOR_AXIS": "7715.868",
    "PERIOD": "112.418",
    "APOGEE": "1343.668",
    "PERIGEE": "1331.798",
    "DECAYED": "0"
  },
  {
    "COMMENT": "GENERATED VIA SPACETRACK.ORG API",
    "ORIGINATOR": "18 SPCS",
    "NORAD_CAT_ID": "46984",
    "OBJECT_NAME": "S6 MICHAEL FREILICH",
    "OBJECT_TYPE": "PAYLOAD",
    "CLASSIFICATION_TYPE": "U",
    "INTLDES": "20086A",
    "EPOCH": "2021-10-21 14:33:35",
    "EPOCH_MICROSECONDS": "4096",
    "MEAN_MOTION": "12.80930636",
    "ECCENTRICITY": "0.0007692",
    "INCLINATION": "66.0416",
    "RA_OF_ASC_NODE": "65.1168",
    "ARG_OF_PERICENTER": "262.2766",
    "MEAN_ANOMALY": "97.7373",
    "EPHEMERIS_TYPE": "0",
    "ELEMENT_SET_NO": "999",
    "REV_AT_EPOCH": "4277",
    "BSTAR": "0",
    "MEAN_MOTION_DOT": "-0.00000061",
    "MEAN_MOTION_DDOT": "0",
    "FILE": "3176557",
    "TLE_LINE0": "0 S6 MICHAEL FREILICH",
    "TLE_LINE1": "1 46984U 20086A   21294.60665514 -.00000061  00000-0  00000+0 0  9995",
    "TLE_LINE2": "2 46984  66.0416  65.1168 0007692 262.2766  97.7373 12.80930636 42772",
    "OBJECT_ID": "2020-086A",
    "OBJECT_NUMBER": "46984",
    "SEMIMAJOR_AXIS": "7715.868",
    "PERIOD": "112.418",
    "APOGEE": "1343.668",
    "PERIGEE": "1331.798",
    "DECAYED": "0"
  },
  {
    "COMMENT": "GENERATED VIA SPACETRACK.ORG API",
    "ORIGINATOR": "18 SPCS",
    "NORAD_CAT_ID": "46984",
    "OBJECT_NAME": "S6 MICHAEL FREILICH",
    "OBJECT_TYPE": "PAYLOAD",
    "CLASSIFICATION_TYPE": "U",
    "INTLDES": "20086A",
    "EPOCH": "2021-10-22 14:55:09",
    "EPOCH_MICROSECONDS": "849792",
    "MEAN_MOTION": "12.80930633",
    "ECCENTRICITY": "0.0007721",
    "INCLINATION": "66.0421",
    "RA_OF_ASC_NODE": "63.0092",
    "ARG_OF_PERICENTER": "262.1878",
    "MEAN_ANOMALY": "97.8249",
    "EPHEMERIS_TYPE": "0",
    "ELEMENT_SET_NO": "999",
    "REV_AT_EPOCH": "4290",
    "BSTAR": "0",
    "MEAN_MOTION_DOT": "-0.00000061",
    "MEAN_MOTION_DDOT": "0",
    "FILE": "3178647",
    "TLE_LINE0": "0 S6 MICHAEL FREILICH",
    "TLE_LINE1": "1 46984U 20086A   21295.62164178 -.00000061  00000-0  00000+0 0  9998",
    "TLE_LINE2": "2 46984  66.0421  63.0092 0007721 262.1878  97.8249 12.80930633 42902",
    "OBJECT_ID": "2020-086A",
    "OBJECT_NUMBER": "46984",
    "SEMIMAJOR_AXIS": "7715.868",
    "PERIOD": "112.418",
    "APOGEE": "1343.690",
    "PERIGEE": "1331.775",
    "DECAYED": "0"
  }
]